NORAD_CAT_ID,OBJECT_NAME,OBJECT_TYPE,EPOCH,MEAN_MOTION,ECCENTRICITY,INCLINATION,RA_OF_ASC_NODE,ARG_OF_PERICENTER,MEAN_ANOMALY,BSTAR,MEAN_MOTION_DOT,MEAN_MOTION_DDOT,TLE_LINE0,TLE_LINE1,TLE_LINE2,SEMIMAJOR_AXIS,PERIOD,APOGEE,PERIGEE,DECAYED
55417.0,STARLINK-5616,PAYLOAD,2024-02-25 13:47:58,14.98345182,0.0002609,70.0005,158.0018,257.4412,102.6455,-7.8753e-05,-1.033e-05,0.0,0 STARLINK-5616,1 55417U 23014AC  24056.57498459 -.00001033  00000-0 -78753-4 0  9993,2 55417  70.0005 158.0018 0002609 257.4412 102.6455 14.98345182 60252,6950.146,96.106,573.824,570.198,0.0
55417.0,STARLINK-5616,PAYLOAD,2024-02-25 17:00:14,14.9835115,0.0002508,70.0009,157.6652,257.1981,102.8898,-0.0001097,-1.402e-05,0.0,0 STARLINK-5616,1 55417U 23014AC  24056.70850040 -.00001402  00000-0 -10970-3 0  9992,2 55417  70.0009 157.6652 0002508 257.1981 102.8898 14.98351150 60278,6950.127,96.106,573.736,570.249,0.0
55417.0,STARLINK-5616,PAYLOAD,2024-02-25 23:24:47,14.98336061,0.0002929,70.0005,156.9902,271.1409,88.9415,-0.00013373,-1.688e-05,0.0,0 STARLINK-5616,1 55417U 23014AC  24056.97554927 -.00001688  00000-0 -13373-3 0  9992,2 55417  70.0005 156.9902 0002929 271.1409  88.9415 14.98336061 60310,6950.174,96.107,574.075,570.003,0.0
55417.0,STARLINK-5616,PAYLOAD,2024-02-26 10:37:44,14.98312843,0.0002649,70.0022,155.8139,261.569,98.5169,0.00011009,1.22e-05,0.0,0 STARLINK-5616,1 55417U 23014AC  24057.44288082  .00001220  00000-0  11009-3 0  9995,2 55417  70.0022 155.8139 0002649 261.5690  98.5169 14.98312843 60385,6950.246,96.108,573.952,570.27,0.0
55417.0,STARLINK-5616,PAYLOAD,2024-02-26 13:50:01,14.98311962,0.0002717,70.0024,155.4776,262.5736,97.5114,0.00010295,1.135e-05,0.0,0 STARLINK-5616,1 55417U 23014AC  24057.57640289  .00001135  00000-0  10295-3 0  9991,2 55417  70.0024 155.4776 0002717 262.5736  97.5114 14.98311962 60401,6950.249,96.108,574.002,570.225,0.0
55417.0,STARLINK-5616,PAYLOAD,2024-02-26 15:26:09,14.98315205,0.0002769,70.0012,155.3096,259.9889,100.0958,5.7479e-05,5.93e-06,0.0,0 STARLINK-5616,1 55417U 23014AC  24057.64316396  .00000593  00000-0  57479-4 0  9991,2 55417  70.0012 155.3096 0002769 259.9889 100.0958 14.98315205 60419,6950.239,96.108,574.028,570.179,0.0
55417.0,STARLINK-5616,PAYLOAD,2024-02-27 12:15:53,14.98331054,0.0002618,70.002,153.1211,260.0782,100.0082,2.0579e-05,1.53e-06,0.0,0 STARLINK-5616,1 55417U 23014AC  24058.51103784  .00000153  00000-0  20579-4 0  9996,2 55417  70.0020 153.1211 0002618 260.0782 100.0082 14.98331054 60543,6950.19,96.107,573.874,570.235,0.0
55417.0,STARLINK-5616,PAYLOAD,2024-02-27 13:52:01,14.98332416,0.0002651,70.0015,152.9523,261.1652,98.9207,1.7902e-05,1.21e-06,0.0,0 STARLINK-5616,1 55417U 23014AC  24058.57779701  .00000121  00000-0  17902-4 0  9991,2 55417  70.0015 152.9523 0002651 261.1652  98.9207 14.98332416 60553,6950.185,96.107,573.893,570.208,0.0
55417.0,STARLINK-5616,PAYLOAD,2024-02-27 15:28:09,14.98335764,0.0002768,70.0013,152.784,266.9096,93.1746,8.6024e-06,1e-07,0.0,0 STARLINK-5616,1 55417U 23014AC  24058.64455504  .00000010  00000-0  86024-5 0  9990,2 55417  70.0013 152.7840 0002768 266.9096  93.1746 14.98335764 60560,6950.175,96.107,573.964,570.116,0.0
55417.0,STARLINK-5616,PAYLOAD,2024-02-28 12:17:54,14.98325439,0.00028,70.001,150.5955,264.7745,95.3095,0.00010312,1.137e-05,0.0,0 STARLINK-5616,1 55417U 23014AC  24059.51243946  .00001137  00000-0  10312-3 0  9998,2 55417  70.0010 150.5955 0002800 264.7745  95.3095 14.98325439 60697,6950.207,96.107,574.018,570.126,0.0
55417.0,STARLINK-5616,PAYLOAD,2024-02-28 13:54:02,14.98324085,0.0002821,70.0008,150.427,263.8512,96.2326,9.2512e-05,1.011e-05,0.0,0 STARLINK-5616,1 55417U 23014AC  24059.57920060  .00001011  00000-0  92512-4 0  9997,2 55417  70.0008 150.4270 0002821 263.8512  96.2326 14.98324085 60703,6950.211,96.107,574.037,570.116,0.0
55417.0,STARLINK-5616,PAYLOAD,2024-02-28 15:30:10,14.98325203,0.000288,70.0008,150.2587,265.0885,94.9945,8.5198e-05,9.24e-06,0.0,0 STARLINK-5616,1 55417U 23014AC  24059.64596021  .00000924  00000-0  85198-4 0  9995,2 55417  70.0008 150.2587 0002880 265.0885  94.9945 14.98325203 60710,6950.208,96.107,574.074,570.071,0.0
55417.0,STARLINK-5616,PAYLOAD,2024-02-29 12:19:55,14.98335037,0.0003025,70.0002,148.0697,267.9698,92.1115,2.3078e-05,1.82e-06,0.0,0 STARLINK-5616,1 55417U 23014AC  24060.51383494  .00000182  00000-0  23078-4 0  9996,2 55417  70.0002 148.0697 0003025 267.9698  92.1115 14.98335037 60845,6950.177,96.107,574.145,569.94,0.0
55417.0,STARLINK-5616,PAYLOAD,2024-02-29 13:56:03,14.98337385,0.000302,70.0002,147.9014,268.4389,91.6424,3.8155e-05,3.62e-06,0.0,0 STARLINK-5616,1 55417U 23014AC  24060.58059261  .00000362  00000-0  38155-4 0  9997,2 55417  70.0002 147.9014 0003020 268.4389  91.6424 14.98337385 60850,6950.17,96.107,574.134,569.936,0.0
55417.0,STARLINK-5616,PAYLOAD,2024-02-29 15:32:11,14.98336968,0.0002997,70.0006,147.7339,267.7339,92.3477,5.6436e-05,5.81e-06,0.0,0 STARLINK-5616,1 55417U 23014AC  24060.64735221  .00000581  00000-0  56436-4 0  9996,2 55417  70.0006 147.7339 0002997 267.7339  92.3477 14.98336968 60864,6950.171,96.107,574.119,569.953,0.0
55417.0,STARLINK-5616,PAYLOAD,2024-03-01 04:21:16,14.98320473,0.0002946,70.0005,146.3863,265.8756,94.2066,0.00020751,2.383e-05,0.0,0 STARLINK-5616,1 55417U 23014AC  24061.18143651  .00002383  00000-0  20751-3 0  9998,2 55417  70.0005 146.3863 0002946 265.8756  94.2066 14.98320473 60944,6950.222,96.108,574.135,570.04,0.0
55417.0,STARLINK-5616,PAYLOAD,2024-03-01 12:21:56,14.98332911,0.0003004,70.0009,145.5466,264.3151,95.7665,7.0272e-05,7.46e-06,0.0,0 STARLINK-5616,1 55417U 23014AC  24061.51523219  .00000746  00000-0  70272-4 0  9992,2 55417  70.0009 145.5466 0003004 264.3151  95.7665 14.98332911 60993,6950.184,96.107,574.137,569.961,0.0
55417.0,STARLINK-5616,PAYLOAD,2024-03-01 13:58:03,14.98335314,0.0002954,70.0008,145.3776,264.4844,95.5979,9.2063e-05,1.006e-05,0.0,0 STARLINK-5616,1 55417U 23014AC  24061.58198991  .00001006  00000-0  92063-4 0  9996,2 55417  70.0008 145.3776 0002954 264.4844  95.5979 14.98335314 61006,6950.176,96.107,574.095,569.988,0.0
55417.0,STARLINK-5616,PAYLOAD,2024-03-01 15:34:12,14.98331946,0.0002861,70.0007,145.2093,264.4654,95.6179,0.00016226,1.844e-05,0.0,0 STARLINK-5616,1 55417U 23014AC  24061.64875065  .00001844  00000-0  16226-3 0  9993,2 55417  70.0007 145.2093 0002861 264.4654  95.6179 14.98331946 61013,6950.187,96.107,574.04,570.063,0.0
55417.0,STARLINK-5616,PAYLOAD,2024-03-02 14:00:04,14.98337657,0.0002683,70.001,142.8545,260.6005,99.4851,3.8042e-05,3.61e-06,0.0,0 STARLINK-5616,1 55417U 23014AC  24062.58338781  .00000361  00000-0  38042-4 0  9990,2 55417  70.0010 142.8545 0002683 260.6005  99.4851 14.98337657 61151,6950.169,96.107,573.899,570.169,0.0
55417.0,STARLINK-5616,PAYLOAD,2024-03-02 15:36:12,14.98337608,0.0002695,70.0009,142.6859,261.3618,98.7236,3.7272e-05,3.52e-06,0.0,0 STARLINK-5616,1 55417U 23014AC  24062.65014755  .00000352  00000-0  37272-4 0  9994,2 55417  70.0009 142.6859 0002695 261.3618  98.7236 14.98337608 61162,6950.169,96.107,573.907,570.161,0.0
55417.0,STARLINK-5616,PAYLOAD,2024-03-03 04:25:17,14.98328948,0.0002573,70.0014,141.3393,257.3297,102.7574,2.032e-05,1.5e-06,0.0,0 STARLINK-5616,1 55417U 23014AC  24063.18423141  .00000150  00000-0  20320-4 0  9998,2 55417  70.0014 141.3393 0002573 257.3297 102.7574 14.98328948 61247,6950.196,96.107,573.849,570.273,0.0
55417.0,STARLINK-5616,PAYLOAD,2024-03-03 14:02:05,14.98331449,0.000265,70.0013,140.3297,239.1343,120.9556,4.2234e-05,4.11e-06,0.0,0 STARLINK-5616,1 55417U 23014AC  24063.58478919  .00000411  00000-0  42234-4 0  9993,2 55417  70.0013 140.3297 0002650 239.1343 120.9556 14.98331449 61303,6950.188,96.107,573.895,570.212,0.0
55417.0,STARLINK-5616,PAYLOAD,2024-03-03 15:38:12,14.98351616,0.000266,70.0012,140.1608,279.3929,80.6929,0.00026782,3.106e-05,0.0,0 STARLINK-5616,1 55417U 23014AC  24063.65153241  .00003106  00000-0  26782-3 0  9992,2 55417  70.0012 140.1608 0002660 279.3929  80.6929 14.98351616 61318,6950.126,96.106,573.84,570.142,0.0
55417.0,STARLINK-5616,PAYLOAD,2024-03-04 10:51:52,14.98314323,0.0002713,70.0006,138.1413,263.9219,96.1631,-0.00019279,-2.392e-05,0.0,0 STARLINK-5616,1 55417U 23014AC  24064.45268896 -.00002392  00000-0 -19279-3 0  9995,2 55417  70.0006 138.1413 0002713 263.9219  96.1631 14.98314323 61431,6950.241,96.108,573.992,570.221,0.0
55417.0,STARLINK-5616,PAYLOAD,2024-03-04 14:04:08,14.98311195,0.0002657,70.0007,137.8038,264.2445,95.8411,-0.00020628,-2.552e-05,0.0,0 STARLINK-5616,1 55417U 23014AC  24064.58621291 -.00002552  00000-0 -20628-3 0  9999,2 55417  70.0007 137.8038 0002657 264.2445  95.8411 14.98311195 61451,6950.251,96.108,573.963,570.269,0.0
55417.0,STARLINK-5616,PAYLOAD,2024-03-04 22:04:49,14.98315925,0.0002273,70.0016,136.9618,274.7774,85.3125,-0.00010003,-1.286e-05,0.0,0 STARLINK-5616,1 55417U 23014AC  24064.92001233 -.00001286  00000-0 -10003-3 0  9994,2 55417  70.0016 136.9618 0002273 274.7774  85.3125 14.98315925 61507,6950.236,96.108,573.681,570.522,0.0
55417.0,STARLINK-5616,PAYLOAD,2024-03-05 04:29:20,14.98317713,0.000333,69.999,136.287,275.3449,84.733,-1.7623e-05,-3.03e-06,0.0,0 STARLINK-5616,1 55417U 23014AC  24065.18704844 -.00000303  00000-0 -17623-4 0  9996,2 55417  69.9990 136.2870 0003330 275.3449  84.7330 14.98317713 61541,6950.231,96.108,574.41,569.781,0.0
55417.0,STARLINK-5616,PAYLOAD,2024-03-05 14:06:08,14.98330201,0.0002999,69.9994,135.2774,275.1881,84.8936,0.00010959,1.215e-05,0.0,0 STARLINK-5616,1 55417U 23014AC  24065.58759965  .00001215  00000-0  10959-3 0  9999,2 55417  69.9994 135.2774 0002999 275.1881  84.8936 14.98330201 61602,6950.192,96.107,574.142,569.973,0.0
55417.0,STARLINK-5616,PAYLOAD,2024-03-06 14:08:08,14.98336758,0.0003184,69.9993,132.752,280.0333,80.0467,0.00039991,4.683e-05,0.0,0 STARLINK-5616,1 55417U 23014AC  24066.58898938  .00004683  00000-0  39991-3 0  9993,2 55417  69.9993 132.7520 0003184 280.0333  80.0467 14.98336758 61752,6950.172,96.107,574.25,569.824,0.0
